{
  "type": "FeatureCollection",
  "features": [
    {
      "type": "Feature",
      "properties": {
        "norad_id": 66359,
        "name": "STARLINK-35805",
        "group": "last-30-days",
        "lat": -15.825802255301797,
        "lon": 142.4803148004437,
        "alt_km": 410.4079324547629,
        "timestamp": "2025-12-05T16:54:13.484505+00:00",
        "meta_object_name": "STARLINK-35805",
        "meta_object_id": "2025-254M",
        "meta_epoch": "2025-12-05T06:00:02.000160",
        "meta_mean_motion": 15.55250066,
        "meta_eccentricity": 0.00014679,
        "meta_inclination": 53.1594,
        "meta_ra_of_asc_node": 312.3991,
        "meta_arg_of_pericenter": 90.2792,
        "meta_mean_anomaly": 86.2092,
        "meta_ephemeris_type": 0,
        "meta_classification_type": "U",
        "meta_norad_cat_id": 66359,
        "meta_element_set_no": 999,
        "meta_rev_at_epoch": 569,
        "meta_bstar": -0.034154239,
        "meta_mean_motion_dot": -0.02094157,
        "meta_mean_motion_ddot": 0,
        "tle_line1": "1 66359U 25254M   25339.25002315 -.02094157  00000+0 -34154-1 0  9994",
        "tle_line2": "2 66359  53.1594 312.3991 0001467  90.2792  86.2092 15.55250066  5695"
      },
      "geometry": {
        "type": "Point",
        "coordinates": [
          142.4803148004437,
          -15.825802255301797
        ]
      }
    },
    {
      "type": "Feature",
      "properties": {
        "norad_id": 66360,
        "name": "STARLINK-35823",
        "group": "last-30-days",
        "lat": -18.806138234299024,
        "lon": 144.9942190631864,
        "alt_km": 410.72929499630936,
        "timestamp": "2025-12-05T16:54:13.484514+00:00",
        "meta_object_name": "STARLINK-35823",
        "meta_object_id": "2025-254N",
        "meta_epoch": "2025-12-05T06:00:02.000160",
        "meta_mean_motion": 15.55248338,
        "meta_eccentricity": 0.00014214,
        "meta_inclination": 53.1594,
        "meta_ra_of_asc_node": 312.3904,
        "meta_arg_of_pericenter": 90.9695,
        "meta_mean_anomaly": 89.3546,
        "meta_ephemeris_type": 0,
        "meta_classification_type": "U",
        "meta_norad_cat_id": 66360,
        "meta_element_set_no": 999,
        "meta_rev_at_epoch": 571,
        "meta_bstar": -0.034124423,
        "meta_mean_motion_dot": -0.02092379,
        "meta_mean_motion_ddot": 0,
        "tle_line1": "1 66360U 25254N   25339.25002315 -.02092379  00000+0 -34124-1 0  9997",
        "tle_line2": "2 66360  53.1594 312.3904 0001421  90.9695  89.3546 15.55248338  5710"
      },
      "geometry": {
        "type": "Point",
        "coordinates": [
          144.9942190631864,
          -18.806138234299024
        ]
      }
    },
    {
      "type": "Feature",
      "properties": {
        "norad_id": 66361,
        "name": "STARLINK-35813",
        "group": "last-30-days",
        "lat": -17.320397503903983,
        "lon": 143.7278997717132,
        "alt_km": 410.67557636659967,
        "timestamp": "2025-12-05T16:54:13.484523+00:00",
        "meta_object_name": "STARLINK-35813",
        "meta_object_id": "2025-254P",
        "meta_epoch": "2025-12-05T06:00:02.000160",
        "meta_mean_motion": 15.55248422,
        "meta_eccentricity": 0.0001622,
        "meta_inclination": 53.1594,
        "meta_ra_of_asc_node": 312.3952,
        "meta_arg_of_pericenter": 87.2373,
        "meta_mean_anomaly": 91.171,
        "meta_ephemeris_type": 0,
        "meta_classification_type": "U",
        "meta_norad_cat_id": 66361,
        "meta_element_set_no": 999,
        "meta_rev_at_epoch": 571,
        "meta_bstar": -0.034178137,
        "meta_mean_motion_dot": -0.02095451,
        "meta_mean_motion_ddot": 0,
        "tle_line1": "1 66361U 25254P   25339.25002315 -.02095451  00000+0 -34178-1 0  9991",
        "tle_line2": "2 66361  53.1594 312.3952 0001622  87.2373  91.1710 15.55248422  5717"
      },
      "geometry": {
        "type": "Point",
        "coordinates": [
          143.7278997717132,
          -17.320397503903983
        ]
      }
    },
    {
      "type": "Feature",
      "properties": {
        "norad_id": 66362,
        "name": "STARLINK-35822",
        "group": "last-30-days",
        "lat": -21.75066467406959,
        "lon": 147.59877565568902,
        "alt_km": 411.17435096375357,
        "timestamp": "2025-12-05T16:54:13.484532+00:00",
        "meta_object_name": "STARLINK-35822",
        "meta_object_id": "2025-254Q",
        "meta_epoch": "2025-12-05T06:00:02.000160",
        "meta_mean_motion": 15.55249802,
        "meta_eccentricity": 0.00015145,
        "meta_inclination": 53.1594,
        "meta_ra_of_asc_node": 312.3825,
        "meta_arg_of_pericenter": 84.6096,
        "meta_mean_anomaly": 99.551,
        "meta_ephemeris_type": 0,
        "meta_classification_type": "U",
        "meta_norad_cat_id": 66362,
        "meta_element_set_no": 999,
        "meta_rev_at_epoch": 571,
        "meta_bstar": -0.034236067,
        "meta_mean_motion_dot": -0.02098634,
        "meta_mean_motion_ddot": 0,
        "tle_line1": "1 66362U 25254Q   25339.25002315 -.02098634  00000+0 -34236-1 0  9993",
        "tle_line2": "2 66362  53.1594 312.3825 0001514  84.6096  99.5510 15.55249802  5713"
      },
      "geometry": {
        "type": "Point",
        "coordinates": [
          147.59877565568902,
          -21.75066467406959
        ]
      }
    },
    {
      "type": "Feature",
      "properties": {
        "norad_id": 66363,
        "name": "STARLINK-35806",
        "group": "last-30-days",
        "lat": -20.283093606256312,
        "lon": 146.28401560065103,
        "alt_km": 411.0315445891674,
        "timestamp": "2025-12-05T16:54:13.484542+00:00",
        "meta_object_name": "STARLINK-35806",
        "meta_object_id": "2025-254R",
        "meta_epoch": "2025-12-05T06:00:02.000160",
        "meta_mean_motion": 15.55248143,
        "meta_eccentricity": 0.00014829,
        "meta_inclination": 53.1594,
        "meta_ra_of_asc_node": 312.3865,
        "meta_arg_of_pericenter": 82.8858,
        "meta_mean_anomaly": 99.3599,
        "meta_ephemeris_type": 0,
        "meta_classification_type": "U",
        "meta_norad_cat_id": 66363,
        "meta_element_set_no": 999,
        "meta_rev_at_epoch": 569,
        "meta_bstar": -0.034217425,
        "meta_mean_motion_dot": -0.02097481,
        "meta_mean_motion_ddot": 0,
        "tle_line1": "1 66363U 25254R   25339.25002315 -.02097481  00000+0 -34217-1 0  9992",
        "tle_line2": "2 66363  53.1594 312.3865 0001482  82.8858  99.3599 15.55248143  5697"
      },
      "geometry": {
        "type": "Point",
        "coordinates": [
          146.28401560065103,
          -20.283093606256312
        ]
      }
    },
    {
      "type": "Feature",
      "properties": {
        "norad_id": 66364,
        "name": "STARLINK-35797",
        "group": "last-30-days",
        "lat": -23.207501673575663,
        "lon": 148.9404034965006,
        "alt_km": 411.34257737643384,
        "timestamp": "2025-12-05T16:54:13.484551+00:00",
        "meta_object_name": "STARLINK-35797",
        "meta_object_id": "2025-254S",
        "meta_epoch": "2025-12-05T06:00:02.000160",
        "meta_mean_motion": 15.55248026,
        "meta_eccentricity": 0.00016038,
        "meta_inclination": 53.1594,
        "meta_ra_of_asc_node": 312.3783,
        "meta_arg_of_pericenter": 84.9891,
        "meta_mean_anomaly": 101.0862,
        "meta_ephemeris_type": 0,
        "meta_classification_type": "U",
        "meta_norad_cat_id": 66364,
        "meta_element_set_no": 999,
        "meta_rev_at_epoch": 571,
        "meta_bstar": -0.034146903,
        "meta_mean_motion_dot": -0.02093706,
        "meta_mean_motion_ddot": 0,
        "tle_line1": "1 66364U 25254S   25339.25002315 -.02093706  00000+0 -34147-1 0  9991",
        "tle_line2": "2 66364  53.1594 312.3783 0001603  84.9891 101.0862 15.55248026  5719"
      },
      "geometry": {
        "type": "Point",
        "coordinates": [
          148.9404034965006,
          -23.207501673575663
        ]
      }
    },
    {
      "type": "Feature",
      "properties": {
        "norad_id": 66365,
        "name": "STARLINK-35827",
        "group": "last-30-days",
        "lat": -26.08443414856301,
        "lon": 151.71515910850638,
        "alt_km": 411.5740956417858,
        "timestamp": "2025-12-05T16:54:13.484560+00:00",
        "meta_object_name": "STARLINK-35827",
        "meta_object_id": "2025-254T",
        "meta_epoch": "2025-12-05T06:00:02.000160",
        "meta_mean_motion": 15.55247669,
        "meta_eccentricity": 0.00014843,
        "meta_inclination": 53.1596,
        "meta_ra_of_asc_node": 312.3709,
        "meta_arg_of_pericenter": 85.4917,
        "meta_mean_anomaly": 104.4203,
        "meta_ephemeris_type": 0,
        "meta_classification_type": "U",
        "meta_norad_cat_id": 66365,
        "meta_element_set_no": 999,
        "meta_rev_at_epoch": 569,
        "meta_bstar": -0.034170011,
        "meta_mean_motion_dot": -0.02094862,
        "meta_mean_motion_ddot": 0,
        "tle_line1": "1 66365U 25254T   25339.25002315 -.02094862  00000+0 -34170-1 0  9992",
        "tle_line2": "2 66365  53.1596 312.3709 0001484  85.4917 104.4203 15.55247669  5697"
      },
      "geometry": {
        "type": "Point",
        "coordinates": [
          151.71515910850638,
          -26.08443414856301
        ]
      }
    }
  ]
}